     2.100          NAVIGATION                              RINEX VERSION / TYPE
fic2rin                                 10/14/2013 00:14:12 PGM / RUN BY / DATE
                                                            END OF HEADER
26 13 10 13 15 59 44.0  .236757565290D-03  .189857018995D-10  .000000000000D+00
     .140000000000D+02 -.163750000000D+02  .402945355720D-08  .233004685420D+01
    -.106543302536D-05  .210788283730D-01  .789202749729D-05  .515368614578D+04
     .575840000000D+05  .189989805222D-06 -.178173196111D+01 -.253319740295D-06
     .977178303033D+00  .232656250000D+03  .125217544920D+01 -.764746140461D-08
    -.354300472323D-09  .100000000000D+01  .176200000000D+04  .000000000000D+00
     .240000000000D+01  .000000000000D+00 -.558793544769D-08  .140000000000D+02
     .553560000000D+05  .400000000000D+01
20 13 10 13 17 59 44.0  .129107385874D-03  .272848410532D-11  .000000000000D+00
     .430000000000D+02  .475312500000D+02  .564809240858D-08  .358597206087D+00
     .248849391937D-05  .565349834505D-02  .674463808537D-05  .515365879250D+04
     .647840000000D+05 -.633299350739D-07 -.298080214985D+01  .149011611938D-07
     .927916643316D+00  .230843750000D+03  .128736796681D+01 -.875822195796D-08
     .158220876249D-09  .100000000000D+01  .176200000000D+04  .000000000000D+00
     .240000000000D+01  .000000000000D+00 -.791624188423D-08  .430000000000D+02
     .576060000000D+05  .400000000000D+01
26 13 10 13 17 59 44.0  .236894935369D-03  .189857018995D-10  .000000000000D+00
     .150000000000D+02 -.290312500000D+02  .411052836286D-08 -.290293714719D+01
    -.145286321640D-05  .210804259405D-01  .778958201408D-05  .515368301964D+04
     .647840000000D+05  .199303030968D-06 -.178178656160D+01 -.104308128357D-06
     .977175769259D+00  .234937500000D+03  .125214528675D+01 -.759674500635D-08
    -.355729103259D-09  .100000000000D+01  .176200000000D+04  .000000000000D+00
     .240000000000D+01  .000000000000D+00 -.558793544769D-08  .150000000000D+02
     .576060000000D+05  .400000000000D+01
 1 13 10 13 18  0  0.0  .845347531140D-04  .375166564481D-11  .000000000000D+00
     .570000000000D+02 -.162500000000D+02  .448590114150D-08  .234499270702D+01
    -.791624188423D-06  .242117361631D-02  .121090561152D-04  .515369446945D+04
     .648000000000D+05 -.596046447754D-07  .231499173018D+01  .391155481339D-07
     .960524582596D+00  .144406250000D+03  .408785526392D+00 -.791818696713D-08
     .201436962087D-09  .100000000000D+01  .176200000000D+04  .000000000000D+00
     .240000000000D+01  .000000000000D+00  .838190317154D-08  .570000000000D+02
     .576060000000D+05  .400000000000D+01
 2 13 10 13 18  0  0.0  .455747824162D-03  .181898940355D-11  .000000000000D+00
     .590000000000D+02 -.268437500000D+02  .486484549748D-08 -.309906811637D+01
    -.139698386192D-05  .126599192154D-01  .113360583782D-04  .515374599648D+04
     .648000000000D+05 -.819563865662D-07  .229032458631D+01 -.210478901863D-06
     .939020067189D+00  .146812500000D+03 -.255171413224D+01 -.795211695188D-08
     .907180644858D-10  .100000000000D+01  .176200000000D+04  .000000000000D+00
     .240000000000D+01  .000000000000D+00 -.172294676304D-07  .590000000000D+02
     .576060000000D+05  .400000000000D+01
 3 13 10 13 18  0  0.0  .272179488093D-03  .500222085975D-11  .000000000000D+00
     .540000000000D+02 -.847187500000D+02  .528343436196D-08 -.294113007321D+01
    -.452436506748D-05  .167232714593D-01  .548735260963D-05  .515373563766D+04
     .648000000000D+05  .312924385071D-06  .111824998623D+01 -.391155481339D-07
     .935613131402D+00  .255718750000D+03  .134356355686D+01 -.841392190219D-08
    -.113219001740D-09  .100000000000D+01  .176200000000D+04  .000000000000D+00
     .340000000000D+01  .000000000000D+00 -.465661287308D-08  .540000000000D+02
     .576060000000D+05  .400000000000D+01
 4 13 10 13 18  0  0.0  .198697671294D-05  .454747350886D-12  .000000000000D+00
     .290000000000D+02 -.215625000000D+02  .510128391752D-08  .180259479822D+00
    -.853091478348D-06  .106223925250D-01  .108741223812D-04  .515362028694D+04
     .648000000000D+05 -.596046447754D-07  .230660875901D+01  .100582838058D-06
     .938063321691D+00  .158906250000D+03  .103701917919D+01 -.839963559282D-08
     .678599694973D-10  .100000000000D+01  .176200000000D+04  .000000000000D+00
     .240000000000D+01  .000000000000D+00 -.605359673500D-08  .290000000000D+02
     .576060000000D+05  .400000000000D+01
 5 13 10 13 18  0  0.0 -.399034470320D-03  .341060513165D-12  .000000000000D+00
     .730000000000D+02  .424687500000D+02  .507628287613D-08 -.840919770998D+00
     .218302011490D-05  .334553816356D-02  .648573040962D-05  .515371745110D+04
     .648000000000D+05  .465661287308D-07 -.292710620988D+01  .186264514923D-08
     .948466012194D+00  .248312500000D+03  .296787531855D+00 -.839499254228D-08
     .150006248362D-09  .100000000000D+01  .176200000000D+04  .000000000000D+00
     .240000000000D+01  .000000000000D+00 -.977888703346D-08  .730000000000D+02
     .576060000000D+05  .400000000000D+01
 6 13 10 13 18  0  0.0  .100475270301D-03  .183035808732D-10  .000000000000D+00
     .250000000000D+02 -.846875000000D+02  .518700177373D-08 -.111513811809D+01
    -.456720590591D-05  .813079776708D-02  .638328492641D-05  .515368217278D+04
     .648000000000D+05  .558793544769D-08  .119879140629D+01 -.968575477600D-07
     .942135933480D+00  .245406250000D+03 -.216298775381D+00 -.860035823944D-08
    -.653598653579D-10  .100000000000D+01  .176200000000D+04  .000000000000D+00
     .240000000000D+01  .000000000000D+00 -.512227416039D-08  .250000000000D+02
     .576060000000D+05  .400000000000D+01
 7 13 10 13 18  0  0.0  .269119162112D-03  .420641299570D-11  .000000000000D+00
     .400000000000D+02  .417500000000D+02  .393123518030D-08  .179236015605D+01
     .228174030781D-05  .698591338005D-02  .113695859909D-04  .515367405319D+04
     .648000000000D+05 -.614672899246D-07 -.807531206928D+00  .800937414169D-07
     .974854147525D+00  .167250000000D+03 -.286113444740D+01 -.786032741419D-08
    -.253581991279D-10  .100000000000D+01  .176200000000D+04  .000000000000D+00
     .240000000000D+01  .000000000000D+00 -.107102096081D-07  .400000000000D+02
     .576060000000D+05  .400000000000D+01
 8 13 10 13 18  0  0.0  .908505171537D-05  .341060513165D-12  .000000000000D+00
     .630000000000D+02  .517187500000D+02  .344657213499D-08  .122294633427D+01
     .291131436825D-05  .134833500488D-01  .109877437353D-04  .515368956375D+04
     .648000000000D+05 -.931322574615D-07 -.713192841150D+00  .165775418282D-06
     .997851856101D+00  .187062500000D+03 -.282274569224D+01 -.765317592835D-08
    -.478591363823D-10  .100000000000D+01  .176200000000D+04  .000000000000D+00
     .240000000000D+01  .000000000000D+00 -.372529029846D-08  .630000000000D+02
     .576060000000D+05  .400000000000D+01
 9 13 10 13 18  0  0.0  .275272410363D-03  .272848410532D-11  .000000000000D+00
     .530000000000D+02  .437812500000D+02  .364015162693D-08  .297022426905D+01
     .238046050072D-05  .168333208421D-01  .112522393465D-04  .515372247124D+04
     .648000000000D+05  .232830643654D-06 -.829714716743D+00  .335276126862D-07
     .983431855038D+00  .168656250000D+03  .173405356204D+01 -.743852413010D-08
    -.642883921553D-11  .100000000000D+01  .176200000000D+04  .000000000000D+00
     .240000000000D+01  .000000000000D+00 -.558793544769D-08  .530000000000D+02
     .576060000000D+05  .400000000000D+01
10 13 10 13 18  0  0.0 -.979308970273D-04 -.136424205266D-11  .000000000000D+00
     .790000000000D+02  .438750000000D+02  .534379401904D-08 -.583874136473D+00
     .235810875893D-05  .129347463371D-01  .630505383015D-05  .515366056252D+04
     .648000000000D+05 -.372529029846D-08 -.290850463012D+01  .229105353355D-06
     .943273979879D+00  .246968750000D+03  .823086474844D+00 -.868500462245D-08
     .996470078407D-10  .100000000000D+01  .176200000000D+04  .000000000000D+00
     .240000000000D+01  .000000000000D+00 -.232830643654D-08  .790000000000D+02
     .576060000000D+05  .400000000000D+01
11 13 10 13 18  0  0.0 -.428365543485D-03 -.352429196937D-11  .000000000000D+00
     .910000000000D+02 -.663750000000D+02  .607311011227D-08  .202799422167D+01
    -.357441604137D-05  .146771257278D-01  .114962458611D-04  .515369626808D+04
     .648000000000D+05  .558793544769D-08  .200774843170D+01 -.331550836563D-06
     .889351492419D+00  .117156250000D+03  .122594978701D+01 -.862107338803D-08
     .371444043564D-10  .100000000000D+01  .176200000000D+04  .000000000000D+00
     .240000000000D+01  .000000000000D+00 -.116415321827D-07  .910000000000D+02
     .576060000000D+05  .400000000000D+01
12 13 10 13 18  0  0.0  .161876436323D-03  .227373675443D-11  .000000000000D+00
     .240000000000D+02  .262187500000D+02  .414124392800D-08  .148144602744D+01
     .118091702461D-05  .451827538200D-02  .499747693539D-05  .515374806595D+04
     .648000000000D+05  .372529029846D-07  .252214622597D+00  .109896063805D-06
     .985703652708D+00  .294406250000D+03  .335235914093D+00 -.812533845296D-08
     .235724104569D-09  .100000000000D+01  .176200000000D+04  .000000000000D+00
     .240000000000D+01  .000000000000D+00 -.116415321827D-07  .240000000000D+02
     .576060000000D+05  .400000000000D+01
13 13 10 13 18  0  0.0  .704503618181D-04 -.375166564481D-11  .000000000000D+00
     .600000000000D+02 -.201875000000D+02  .421124684391D-08 -.214938340126D+01
    -.106170773506D-05  .500545976683D-02  .850111246109D-05  .515368843651D+04
     .648000000000D+05 -.204890966415D-07 -.177387769292D+01  .763684511185D-07
     .979740577716D+00  .225250000000D+03  .220243434357D+01 -.792497296408D-08
    -.511092717635D-09  .100000000000D+01  .176200000000D+04  .000000000000D+00
     .240000000000D+01  .000000000000D+00 -.107102096081D-07  .600000000000D+02
     .576060000000D+05  .400000000000D+01
